{
  "norad_id": 47388,
  "name": "STARLINK-2109",
  "history": [
    {
      "epoch": "2026-03-28T21:31:49.304352Z",
      "apogee_km": 533.2875703453346,
      "perigee_km": 531.1149599947648,
      "latitude_deg": -3.500081348186913e-05,
      "longitude_deg": -174.04701744431966,
      "height_km": 533.1154965584651,
      "semi_major_axis_km": 6910.338265170049,
      "eccentricity": 0.0001572,
      "inclination_deg": 53.0757,
      "raan_deg": 335.2194,
      "arg_perigee_deg": 91.738,
      "mean_anomaly_deg": 268.3791,
      "mean_motion_rev_day": 15.11310855
    },
    {
      "epoch": "2026-03-29T22:55:29.763840Z",
      "apogee_km": 533.2597487713974,
      "perigee_km": 531.2032231099811,
      "latitude_deg": 1.7584633896960245e-05,
      "longitude_deg": 159.20802308443203,
      "height_km": 533.0802355896919,
      "semi_major_axis_km": 6910.3684859406885,
      "eccentricity": 0.0001488,
      "inclination_deg": 53.0754,
      "raan_deg": 330.4359,
      "arg_perigee_deg": 88.1826,
      "mean_anomaly_deg": 271.9336,
      "mean_motion_rev_day": 15.11300941
    },
    {
      "epoch": "2026-03-29T22:55:29.764704Z",
      "apogee_km": 533.2598869787662,
      "perigee_km": 531.2030849026105,
      "latitude_deg": 1.5738769287572488e-05,
      "longitude_deg": 159.20801809504297,
      "height_km": 533.0802312071229,
      "semi_major_axis_km": 6910.3684859406885,
      "eccentricity": 0.00014882,
      "inclination_deg": 53.0754,
      "raan_deg": 330.4359,
      "arg_perigee_deg": 88.1826,
      "mean_anomaly_deg": 271.9336,
      "mean_motion_rev_day": 15.11300941
    },
    {
      "epoch": "2026-03-30T14:47:47.376384Z",
      "apogee_km": 533.127211914375,
      "perigee_km": 531.3039844848663,
      "latitude_deg": -3.954700109053421e-05,
      "longitude_deg": -82.50722624689932,
      "height_km": 533.1203798188651,
      "semi_major_axis_km": 6910.35259819962,
      "eccentricity": 0.00013192,
      "inclination_deg": 53.0754,
      "raan_deg": 327.4459,
      "arg_perigee_deg": 91.4569,
      "mean_anomaly_deg": 268.6573,
      "mean_motion_rev_day": 15.11306153
    },
    {
      "epoch": "2026-03-30T21:08:42.117792Z",
      "apogee_km": 533.0843810198294,
      "perigee_km": 531.3071816351267,
      "latitude_deg": 5.5387456060303905e-05,
      "longitude_deg": -179.19086943375953,
      "height_km": 533.1448504629948,
      "semi_major_axis_km": 6910.332781327477,
      "eccentricity": 0.00012859,
      "inclination_deg": 53.0752,
      "raan_deg": 326.251,
      "arg_perigee_deg": 94.3532,
      "mean_anomaly_deg": 265.7607,
      "mean_motion_rev_day": 15.11312654
    },
    {
      "epoch": "2026-03-31T20:57:09.377280Z",
      "apogee_km": 533.3164127942855,
      "perigee_km": 531.2101227926623,
      "latitude_deg": -3.9331962764265196e-05,
      "longitude_deg": 178.2344376977247,
      "height_km": 533.2281494647707,
      "semi_major_axis_km": 6910.400267793474,
      "eccentricity": 0.0001524,
      "inclination_deg": 53.0769,
      "raan_deg": 321.7677,
      "arg_perigee_deg": 94.5423,
      "mean_anomaly_deg": 265.5742,
      "mean_motion_rev_day": 15.11290515
    },
    {
      "epoch": "2026-04-01T20:45:36.084672Z",
      "apogee_km": 533.2609005183076,
      "perigee_km": 531.2320119355591,
      "latitude_deg": -2.067435527895352e-05,
      "longitude_deg": 175.66213614158463,
      "height_km": 533.257876833144,
      "semi_major_axis_km": 6910.383456226933,
      "eccentricity": 0.0001468,
      "inclination_deg": 53.0773,
      "raan_deg": 317.2844,
      "arg_perigee_deg": 97.352,
      "mean_anomaly_deg": 262.7638,
      "mean_motion_rev_day": 15.1129603
    },
    {
      "epoch": "2026-04-02T07:52:12.358848Z",
      "apogee_km": 533.0448902961689,
      "perigee_km": 531.3886167085293,
      "latitude_deg": 2.9166223578727772e-05,
      "longitude_deg": 6.459056769781037,
      "height_km": 533.0748809472221,
      "semi_major_axis_km": 6910.353753502349,
      "eccentricity": 0.00011984,
      "inclination_deg": 53.076,
      "raan_deg": 315.1887,
      "arg_perigee_deg": 88.3603,
      "mean_anomaly_deg": 271.7526,
      "mean_motion_rev_day": 15.11305774
    },
    {
      "epoch": "2026-04-02T22:09:15.874560Z",
      "apogee_km": 533.0072641037623,
      "perigee_km": 531.3406353089113,
      "latitude_deg": 3.791352841207163e-05,
      "longitude_deg": 148.91607916148118,
      "height_km": 532.956243416784,
      "semi_major_axis_km": 6910.310949706336,
      "eccentricity": 0.00012059,
      "inclination_deg": 53.074,
      "raan_deg": 312.497,
      "arg_perigee_deg": 83.1546,
      "mean_anomaly_deg": 276.9583,
      "mean_motion_rev_day": 15.11319816
    },
    {
      "epoch": "2026-04-03T18:46:53.149440Z",
      "apogee_km": 532.1704808103987,
      "perigee_km": 528.772827074391,
      "latitude_deg": 5.444334571745404e-05,
      "longitude_deg": -165.22424213259282,
      "height_km": 532.1529325541221,
      "semi_major_axis_km": 6908.608653942395,
      "eccentricity": 0.0002459,
      "inclination_deg": 53.0742,
      "raan_deg": 308.6091,
      "arg_perigee_deg": 118.1254,
      "mean_anomaly_deg": 241.9987,
      "mean_motion_rev_day": 15.11878439
    },
    {
      "epoch": "2026-04-04T01:07:31.927584Z",
      "apogee_km": 530.7283781028091,
      "perigee_km": 527.7605525824092,
      "latitude_deg": -1.877696592683063e-05,
      "longitude_deg": 98.15668434591001,
      "height_km": 529.6751094009363,
      "semi_major_axis_km": 6907.381465342609,
      "eccentricity": 0.00021483,
      "inclination_deg": 53.0745,
      "raan_deg": 307.4122,
      "arg_perigee_deg": 72.3385,
      "mean_anomaly_deg": 287.7841,
      "mean_motion_rev_day": 15.12281365
    },
    {
      "epoch": "2026-04-05T14:00:03.000384Z",
      "apogee_km": 522.035981185656,
      "perigee_km": 519.6911488736141,
      "latitude_deg": 52.73600163598459,
      "longitude_deg": -2.539424079688881,
      "height_km": 526.1960652597222,
      "semi_major_axis_km": 6899.000565029635,
      "eccentricity": 0.00016994,
      "inclination_deg": 53.0876,
      "raan_deg": 300.4418,
      "arg_perigee_deg": 78.0292,
      "mean_anomaly_deg": 18.5655,
      "mean_motion_rev_day": 15.15037879
    },
    {
      "epoch": "2026-04-05T20:00:03.000384Z",
      "apogee_km": 520.4964157253617,
      "perigee_km": 519.3347836675721,
      "latitude_deg": 16.35721850695911,
      "longitude_deg": 177.82688341861646,
      "height_km": 519.853705527477,
      "semi_major_axis_km": 6898.052599696466,
      "eccentricity": 8.42e-05,
      "inclination_deg": 53.0882,
      "raan_deg": 299.3076,
      "arg_perigee_deg": 80.8824,
      "mean_anomaly_deg": 299.7221,
      "mean_motion_rev_day": 15.15350196
    }
  ]
}